SatCatId,ObjectName,LaunchYear,OrbitalPeriod,LaunchMass,StatusCode,Inclination,Status,UcsData,OrbitClassEstimated,LaunchSiteCountry,Owner,UseType,Purpose,LaunchVehicleClass,TLE1,TLE2,MeanMotion,Eccentricity,OrbitClass
23168,COSMOS 2282,1994,1436.89,-1.0,-,13.96,Inactive,0,GSO,Kazakhstan,Russia/USSR,Unknown,Unknown,Unknown,1 23168U 94038A   25008.81129331 -.00000295  00000+0  00000+0 0  9992,2 23168  13.9637 356.4583 0006292 125.9002 232.8043  1.00216159111744,1.00216159,0.0006292,GSO
14977,COSMOS 1554 [GLONASS],1984,675.74,-1.0,-,66.56,Inactive,0,MEO,Kazakhstan,Russia/USSR,Unknown,Unknown,Unknown,1 14977U 84047A   25008.52488347 -.00000055  00000+0  00000+0 0  9996,2 14977  66.5615 345.2744 0018448 223.0452 242.1965  2.13099158 92706,2.13099158,0.0018448,MEO
14978,COSMOS 1555 [GLONASS],1984,675.73,-1.0,-,66.57,Inactive,0,MEO,Kazakhstan,Russia/USSR,Unknown,Unknown,Unknown,1 14978U 84047B   25008.52488343 -.00000055  00000+0  00000+0 0  9993,2 14978  66.5741 345.7503 0012051 185.5653 279.0911  2.13101898288324,2.13101898,0.0012051,MEO
6787,OPS 8364 (DMSP 5B F4),1973,100.47,-1.0,-,98.64,Inactive,0,LEO,USA,USA,Unknown,Unknown,Unknown,1 06787U 73054A   25008.87862146  .00000583  00000+0  22741-3 0  9998,2 06787  98.6362 234.8563 0026353 142.0558 218.2490 14.33209493676888,14.33209493,0.0026353,LEO
14979,COSMOS 1556 [GLONASS],1984,676.34,-1.0,-,66.6,Inactive,0,MEO,Kazakhstan,Russia/USSR,Unknown,Unknown,Unknown,1 14979U 84047C   25008.37612536 -.00000053  00000+0  00000+0 0  9998,2 14979  66.5995 346.8355 0009494 198.5543 226.9414  2.12912184315925,2.12912184,0.0009494,MEO
6791,OPS 7724,1973,717.94,-1.0,UNK,62.09,Inactive,0,MEO,USA,USA,Unknown,Unknown,Unknown,1 06791U 73056A   25008.28986781  .00000022  00000+0  72894-2 0  9993,2 06791  62.0879 102.4767 7186331 275.3903  13.7553  2.00575005 39080,2.00575005,0.7186331,MEO
23175,INTELSAT 2 (IS-2),1994,1451.66,-1.0,-,11.31,Inactive,0,GSO,French Guiana,USA,Unknown,Unknown,Unknown,1 23175U 94040A   25008.47007531 -.00000275  00000+0  00000+0 0  9990,2 23175  11.3134  38.6762 0001133 287.4428 109.5463  0.99196702110449,0.99196702,0.0001133,GSO
14985,ZHONGXING-5,1984,1440.06,-1.0,-,14.56,Inactive,0,GSO,French Guiana,China,Unknown,Unknown,Unknown,1 14985U 84049A   25005.17795375  .00000001  00000+0  00000+0 0  9997,2 14985  14.5626 352.3075 0012155 232.6090 314.1271  0.99996149126020,0.99996149,0.0012155,GSO
23176,BS-3N,1994,1452.37,-1.0,UNK,12.78,Inactive,0,GSO,French Guiana,Japan,Unknown,Unknown,Unknown,1 23176U 94040B   25008.37648209  .00000023  00000+0  00000+0 0  9993,2 23176  12.7798  23.6920 0002021 333.4877 139.0224  0.99148292 97109,0.99148292,0.0002021,GSO
23179,NADEZHDA 4,1994,104.59,-1.0,-,82.95,Inactive,0,LEO,Russia,Russia/USSR,Unknown,Unknown,Unknown,1 23179U 94041A   25008.56662963  .00000086  00000+0  71359-4 0  9990,2 23179  82.9453  56.6322 0036509 116.8982 352.2652 13.76744624531331,13.76744624,0.0036509,LEO
6796,INTELSAT 4-F7,1973,1452.44,-1.0,-,8.45,Inactive,0,GSO,USA,INTELSAT,Unknown,Unknown,Unknown,1 06796U 73058A   25008.59436578  .00000094  00000+0  00000+0 0  9994,2 06796   8.4520 301.2046 0004285 212.1203  40.0916  0.99143685130442,0.99143685,0.0004285,GSO
23185,APSTAR-1,1994,1448.99,-1.0,-,12.78,Inactive,0,GSO,PRC,China,Unknown,Unknown,Unknown,1 23185U 94043A   25008.56349685 -.00000048  00000+0  00000+0 0  9991,2 23185  12.7804  21.5686 0001940   3.9736 117.5401  0.99379472 39868,0.99379472,0.000194,GSO
23189,COSMOS 2285,1994,104.92,-1.0,UNK,74.03,Inactive,0,LEO,Russia,Russia/USSR,Unknown,Unknown,Unknown,1 23189U 94045A   25008.41821712  .00000048  00000+0  76526-4 0  9997,2 23189  74.0283 260.7206 0024921  10.9294 162.4705 13.72464862524396,13.72464862,0.0024921,LEO
14998,COSMOS 1559,1984,115.76,-1.0,UNK,74.01,Inactive,0,LEO,Russia,Russia/USSR,Unknown,Unknown,Unknown,1 14998U 84052A   25008.52133979  .00000003  00000+0  13366-3 0  9998,2 14998  74.0114 153.3470 0025583 181.2611 244.1395 12.43969729844293,12.43969729,0.0025583,LEO
14999,COSMOS 1560,1984,115.56,-1.0,UNK,74.01,Inactive,0,LEO,Russia,Russia/USSR,Unknown,Unknown,Unknown,1 14999U 84052B   25008.66774116 -.00000019  00000+0 -25319-4 0  9999,2 14999  74.0122  74.7608 0012786  80.6874  77.6241 12.46107324847724,12.46107324,0.0012786,LEO
15000,COSMOS 1561,1984,115.39,-1.0,UNK,74.01,Inactive,0,LEO,Russia,Russia/USSR,Unknown,Unknown,Unknown,1 15000U 84052C   25008.46687814  .00000009  00000+0  16839-3 0  9992,2 15000  74.0133   6.3619 0015778 315.3017 158.0597 12.47980552850279,12.47980552,0.0015778,LEO
15001,COSMOS 1562,1984,115.2,-1.0,UNK,74.01,Inactive,0,LEO,Russia,Russia/USSR,Unknown,Unknown,Unknown,1 15001U 84052D   25008.54210119 -.00000011  00000+0  35036-4 0  9997,2 15001  74.0139 294.0779 0015429 193.1834 340.3033 12.49954766853220,12.49954766,0.0015429,LEO
15002,COSMOS 1563,1984,115.03,-1.0,UNK,74.01,Inactive,0,LEO,Russia,Russia/USSR,Unknown,Unknown,Unknown,1 15002U 84052E   25008.64373223 -.00000002  00000+0  89880-4 0  9991,2 15002  74.0094 224.5424 0023912 101.4808 326.0629 12.51828777588564,12.51828777,0.0023912,LEO
15003,COSMOS 1564,1984,114.87,-1.0,UNK,74.01,Inactive,0,LEO,Russia,Russia/USSR,Unknown,Unknown,Unknown,1 15003U 84052F   25008.54487024  .00000003  00000+0  11649-3 0  9993,2 15003  74.0111 160.4642 0032747  18.7785  46.7417 12.53574030858524,12.5357403,0.0032747,LEO
15004,COSMOS 1565,1984,114.7,-1.0,UNK,74.01,Inactive,0,LEO,Russia,Russia/USSR,Unknown,Unknown,Unknown,1 15004U 84052G   25008.63241116 -.00000016  00000+0  61308-6 0  9999,2 15004  74.0127  90.5750 0044365 299.6279 175.0212 12.55451907861311,12.55451907,0.0044365,LEO
15005,COSMOS 1566,1984,114.52,-1.0,UNK,74.01,Inactive,0,LEO,Russia,Russia/USSR,Unknown,Unknown,Unknown,1 15005U 84052H   25008.45428321  .00000009  00000+0  14811-3 0  9990,2 15005  74.0130  19.4481 0051988 209.7053 259.6934 12.57372111864154,12.57372111,0.0051988,LEO
23192,DIRECTV 2 (DBS 2),1994,1459.94,-1.0,-,12.16,Inactive,0,GSO,USA,USA,Unknown,Unknown,Unknown,1 23192U 94047A   25007.16646764 -.00000069  00000+0  00000+0 0  9999,2 23192  12.1638  30.2293 0009542 307.1476 218.7363  0.98634265120474,0.98634265,0.0009542,GSO
23194,COSMOS 2286,1994,718.26,-1.0,UNK,66.88,Inactive,0,MEO,Russia,Russia/USSR,Unknown,Unknown,Unknown,1 23194U 94048A   25008.26147969 -.00000522  00000+0  00000+0 0  9991,2 23194  66.8812 180.9223 5727862 130.5517 295.5765  2.00483291222943,2.00483291,0.5727862,MEO
23199,BRASILSAT B1,1994,1450.92,-1.0,-,11.95,Inactive,0,GSO,French Guiana,Brazil,Unknown,Unknown,Unknown,1 23199U 94049A   25006.18433679  .00000056  00000+0  00000+0 0  9993,2 23199  11.9548  30.4755 0006403 198.0898 343.6847  0.99247542 40971,0.99247542,0.0006403,GSO
23200,TURKSAT 1B,1994,1453.83,-1.0,-,13.19,Inactive,0,GSO,French Guiana,Turkey,Unknown,Unknown,Unknown,1 23200U 94049B   25008.49523692 -.00000067  00000+0  00000+0 0  9990,2 23200  13.1877  20.2505 0013559 105.4137 358.4613  0.99048628110103,0.99048628,0.0013559,GSO
23203,COSMOS 2287 [GLONASS],1994,675.74,-1.0,-,65.42,Inactive,0,MEO,Kazakhstan,Russia/USSR,Unknown,Unknown,Unknown,1 23203U 94050A   25008.28141549  .00000114  00000+0  00000+0 0  9991,2 23203  65.4209 219.2480 0012281  27.2071 176.8810  2.13101269236666,2.13101269,0.0012281,MEO
23204,COSMOS 2289 [GLONASS],1994,675.73,-1.0,-,65.41,Inactive,0,MEO,Kazakhstan,Russia/USSR,Unknown,Unknown,Unknown,1 23204U 94050B   25006.78578453  .00000102  00000+0  00000+0 0  9990,2 23204  65.4093 219.1626 0008753 331.4224  28.5932  2.13102846236455,2.13102846,0.0008753,MEO
23205,COSMOS 2288 [GLONASS],1994,675.73,-1.0,-,65.42,Inactive,0,MEO,Kazakhstan,Russia/USSR,Unknown,Unknown,Unknown,1 23205U 94050C   25008.32030021  .00000114  00000+0  00000+0 0  9990,2 23205  65.4163 219.1849 0001350 322.9328 219.2799  2.13101302236644,2.13101302,0.000135,MEO
6822,OPS 8314 (2),1972,114.69,-1.0,UNK,95.64,Inactive,0,LEO,USA,USA,Unknown,Unknown,Unknown,1 06822U 72079C   25008.34896682  .00000019  00000+0  19133-3 0  9993,2 06822  95.6434 135.1629 0028848 240.6402 132.9476 12.55604215393846,12.55604215,0.0028848,LEO
31395,NIGCOMSAT 1,2007,1435.64,-1.0,-,11.0,Inactive,0,GSO,PRC,Nigeria,Unknown,Unknown,Unknown,1 31395U 07018A   25007.84162566  .00000121  00000+0  00000+0 0  9991,2 31395  11.0026  36.8616 0004004 125.5080 292.8599  1.00303829 64798,1.00303829,0.0004004,GSO
6825,COSMOS 585,1973,113.54,-1.0,UNK,74.02,Inactive,0,LEO,Russia,Russia/USSR,Unknown,Unknown,Unknown,1 06825U 73064A   25008.62160562  .00000003  00000+0  10486-3 0  9998,2 06825  74.0218 166.0938 0019418 264.5939 175.7723 12.68224019376697,12.68224019,0.0019418,LEO
6828,COSMOS 586,1973,104.7,-1.0,UNK,82.94,Inactive,0,LEO,Russia,Russia/USSR,Unknown,Unknown,Unknown,1 06828U 73065A   25008.63695274  .00000103  00000+0  91396-4 0  9997,2 06828  82.9404 192.0535 0026775 223.7655 206.2734 13.75315411574792,13.75315411,0.0026775,LEO
55983,GLOBAL-5,2023,93.61,-1.0,UNK,42.01,Inactive,1,LEO,New Zealand,USA,Commercial,Earth Observation,Electron,1 55983U 23041C   25008.42794144  .00029552  00000+0  76724-3 0  9991,2 55983  42.0084  23.0729 0001411  32.8695 327.2232 15.38376990101108,15.3837699,0.0001411,LEO
15031,COSMOS 1570,1984,100.53,-1.0,UNK,74.07,Inactive,0,LEO,Russia,Russia/USSR,Unknown,Unknown,Unknown,1 15031U 84056A   25008.83688723  .00000329  00000+0  13115-3 0  9990,2 15031  74.0661 165.9500 0012706   0.0146 105.9018 14.32429736119623,14.32429736,0.0012706,LEO
23227,OPTUS B3,1994,1459.06,-1.0,-,11.53,Inactive,0,GSO,PRC,Australia,Unknown,Unknown,Unknown,1 23227U 94055A   25008.09077187  .00000034  00000+0  00000+0 0  9998,2 23227  11.5323  34.0952 0003129 329.7841 209.5467  0.98693428110739,0.98693428,0.0003129,GSO
6845,COSMOS 588,1973,115.33,-1.0,UNK,74.0,Inactive,0,LEO,Russia,Russia/USSR,Unknown,Unknown,Unknown,1 06845U 73069A   25008.39313823  .00000005  00000+0  13880-3 0  9992,2 06845  74.0030 328.3218 0029400 220.4806 315.4845 12.48625977336893,12.48625977,0.00294,LEO
